[{"OBJECT_NAME":"STARLINK-33997","OBJECT_ID":"2025-098C","EPOCH":"2026-03-09T22:20:46.078368","MEAN_MOTION":14.96551413,"ECCENTRICITY":0.00068477,"INCLINATION":70.0004,"RA_OF_ASC_NODE":274.0384,"ARG_OF_PERICENTER":77.5305,"MEAN_ANOMALY":282.6619,"EPHEMERIS_TYPE":0,"CLASSIFICATION_TYPE":"U","NORAD_CAT_ID":63928,"ELEMENT_SET_NO":999,"REV_AT_EPOCH":4660,"BSTAR":-0.062237161,"MEAN_MOTION_DOT":-0.00663337,"MEAN_MOTION_DDOT":0},{"OBJECT_NAME":"SL-14 R\/B","OBJECT_ID":"1982-092B","EPOCH":"2026-03-09T17:18:39.150144","MEAN_MOTION":14.86666366,"ECCENTRICITY":0.00190036,"INCLINATION":82.5695,"RA_OF_ASC_NODE":141.37,"ARG_OF_PERICENTER":303.44,"MEAN_ANOMALY":173.5585,"EPHEMERIS_TYPE":0,"CLASSIFICATION_TYPE":"U","NORAD_CAT_ID":13553,"ELEMENT_SET_NO":999,"REV_AT_EPOCH":32893,"BSTAR":6.0425664e-5,"MEAN_MOTION_DOT":5.62e-6,"MEAN_MOTION_DDOT":0}]
